STARLINK-30069          
1 56834U 23079M   26067.48212902 -.00002416  00000+0 -80472-4 0  9995
2 56834  42.9986 110.4464 0000469 272.6695  87.4103 15.26726881152740
STARLINK-32618          
1 62045U 24216P   26068.82131346  .00023302  00000+0  85364-3 0  9990
2 62045  43.0003 255.7603 0001749 269.1618  90.9034 15.27578686 73898
