[{"OBJECT_NAME":"STARLINK-30069","OBJECT_ID":"2023-079M","EPOCH":"2026-03-08T11:34:15.947328","MEAN_MOTION":15.26726881,"ECCENTRICITY":4.69e-5,"INCLINATION":42.9986,"RA_OF_ASC_NODE":110.4464,"ARG_OF_PERICENTER":272.6695,"MEAN_ANOMALY":87.4103,"EPHEMERIS_TYPE":0,"CLASSIFICATION_TYPE":"U","NORAD_CAT_ID":56834,"ELEMENT_SET_NO":999,"REV_AT_EPOCH":15274,"BSTAR":-8.0472e-5,"MEAN_MOTION_DOT":-2.416e-5,"MEAN_MOTION_DDOT":0},{"OBJECT_NAME":"STARLINK-32618","OBJECT_ID":"2024-216P","EPOCH":"2026-03-09T19:42:41.482944","MEAN_MOTION":15.27578686,"ECCENTRICITY":0.00017489,"INCLINATION":43.0003,"RA_OF_ASC_NODE":255.7603,"ARG_OF_PERICENTER":269.1618,"MEAN_ANOMALY":90.9034,"EPHEMERIS_TYPE":0,"CLASSIFICATION_TYPE":"U","NORAD_CAT_ID":62045,"ELEMENT_SET_NO":999,"REV_AT_EPOCH":7389,"BSTAR":0.00085364366,"MEAN_MOTION_DOT":0.00023302,"MEAN_MOTION_DDOT":0}]
